ALOS-4 (DAICHI-4)       
1 60182U 24123A   24288.56915928  .00004717  00000+0  63816-3 0  9993
2 60182  97.9218  23.5075 0001525  99.8853 260.2530 14.79470018 15591
